CCSDS_OMM_VERS = 2.0
CREATION_DATE  = 
ORIGINATOR     = 

OBJECT_NAME    = HTV-X1
OBJECT_ID      = 2025-241A
CENTER_NAME    = EARTH
REF_FRAME      = TEME
TIME_SYSTEM    = UTC
MEAN_ELEMENT_THEORY = SGP/SGP4

EPOCH          = 2026-03-29T03:34:03.535392
MEAN_MOTION    = 15.32434802
ECCENTRICITY   = .000728
INCLINATION    = 51.6384
RA_OF_ASC_NODE = 339.2964
ARG_OF_PERICENTER = 246.5234
MEAN_ANOMALY   = 113.4983

EPHEMERIS_TYPE = 0
CLASSIFICATION_TYPE = U
NORAD_CAT_ID   = 66174
ELEMENT_SET_NO = 999
REV_AT_EPOCH   = 2392
BSTAR          = .99263E-4
MEAN_MOTION_DOT = .2786E-4
MEAN_MOTION_DDOT = 0

CCSDS_OMM_VERS = 2.0
CREATION_DATE  = 
ORIGINATOR     = 

OBJECT_NAME    = SZ-21 MODULE
OBJECT_ID      = 2025-246C
CENTER_NAME    = EARTH
REF_FRAME      = TEME
TIME_SYSTEM    = UTC
MEAN_ELEMENT_THEORY = SGP/SGP4

EPOCH          = 2026-03-29T00:54:26.680320
MEAN_MOTION    = 15.70036431
ECCENTRICITY   = .0001715
INCLINATION    = 41.4742
RA_OF_ASC_NODE = 84.1231
ARG_OF_PERICENTER = 213.3550
MEAN_ANOMALY   = 146.7184

EPHEMERIS_TYPE = 0
CLASSIFICATION_TYPE = U
NORAD_CAT_ID   = 66515
ELEMENT_SET_NO = 999
REV_AT_EPOCH   = 2111
BSTAR          = .35621E-3
MEAN_MOTION_DOT = .44105E-3
MEAN_MOTION_DDOT = 0

CCSDS_OMM_VERS = 2.0
CREATION_DATE  = 
ORIGINATOR     = 

OBJECT_NAME    = SHENZHOU-22
OBJECT_ID      = 2025-272A
CENTER_NAME    = EARTH
REF_FRAME      = TEME
TIME_SYSTEM    = UTC
MEAN_ELEMENT_THEORY = SGP/SGP4

EPOCH          = 2026-03-28T23:18:08.263008
MEAN_MOTION    = 15.61596075
ECCENTRICITY   = .0003972
INCLINATION    = 41.4668
RA_OF_ASC_NODE = 90.7542
ARG_OF_PERICENTER = 51.5615
MEAN_ANOMALY   = 308.5580

EPHEMERIS_TYPE = 0
CLASSIFICATION_TYPE = U
NORAD_CAT_ID   = 66645
ELEMENT_SET_NO = 999
REV_AT_EPOCH   = 28085
BSTAR          = .17362E-3
MEAN_MOTION_DOT = .15046E-3
MEAN_MOTION_DDOT = 0

CCSDS_OMM_VERS = 2.0
CREATION_DATE  = 
ORIGINATOR     = 

OBJECT_NAME    = SOYUZ-MS 28
OBJECT_ID      = 2025-275A
CENTER_NAME    = EARTH
REF_FRAME      = TEME
TIME_SYSTEM    = UTC
MEAN_ELEMENT_THEORY = SGP/SGP4

EPOCH          = 2026-03-29T03:11:03.043104
MEAN_MOTION    = 15.48624340
ECCENTRICITY   = .0006215
INCLINATION    = 51.6344
RA_OF_ASC_NODE = 336.2407
ARG_OF_PERICENTER = 245.2164
MEAN_ANOMALY   = 114.8178

EPHEMERIS_TYPE = 0
CLASSIFICATION_TYPE = U
NORAD_CAT_ID   = 66664
ELEMENT_SET_NO = 999
REV_AT_EPOCH   = 55942
BSTAR          = .23326E-3
MEAN_MOTION_DOT = .1226E-3
MEAN_MOTION_DDOT = 0

CCSDS_OMM_VERS = 2.0
CREATION_DATE  = 
ORIGINATOR     = 

OBJECT_NAME    = DUPLEX
OBJECT_ID      = 1998-067XS
CENTER_NAME    = EARTH
REF_FRAME      = TEME
TIME_SYSTEM    = UTC
MEAN_ELEMENT_THEORY = SGP/SGP4

EPOCH          = 2026-03-28T23:19:03.065664
MEAN_MOTION    = 15.57505635
ECCENTRICITY   = .0002979
INCLINATION    = 51.6302
RA_OF_ASC_NODE = 332.9170
ARG_OF_PERICENTER = 200.7419
MEAN_ANOMALY   = 159.3453

EPHEMERIS_TYPE = 0
CLASSIFICATION_TYPE = U
NORAD_CAT_ID   = 66906
ELEMENT_SET_NO = 999
REV_AT_EPOCH   = 1813
BSTAR          = .45468E-3
MEAN_MOTION_DOT = .33749E-3
MEAN_MOTION_DDOT = 0

CCSDS_OMM_VERS = 2.0
CREATION_DATE  = 
ORIGINATOR     = 

OBJECT_NAME    = ISS OBJECT XT
OBJECT_ID      = 1998-067XT
CENTER_NAME    = EARTH
REF_FRAME      = TEME
TIME_SYSTEM    = UTC
MEAN_ELEMENT_THEORY = SGP/SGP4

EPOCH          = 2026-03-29T00:39:43.520256
MEAN_MOTION    = 15.76429698
ECCENTRICITY   = .0006045
INCLINATION    = 51.6243
RA_OF_ASC_NODE = 326.5038
ARG_OF_PERICENTER = 205.1470
MEAN_ANOMALY   = 154.9236

EPHEMERIS_TYPE = 0
CLASSIFICATION_TYPE = U
NORAD_CAT_ID   = 66907
ELEMENT_SET_NO = 999
REV_AT_EPOCH   = 1822
BSTAR          = .14473E-2
MEAN_MOTION_DOT = .240433E-2
MEAN_MOTION_DDOT = 0

CCSDS_OMM_VERS = 2.0
CREATION_DATE  = 
ORIGINATOR     = 

OBJECT_NAME    = ISS OBJECT XU
OBJECT_ID      = 1998-067XU
CENTER_NAME    = EARTH
REF_FRAME      = TEME
TIME_SYSTEM    = UTC
MEAN_ELEMENT_THEORY = SGP/SGP4

EPOCH          = 2026-03-29T00:34:12.711072
MEAN_MOTION    = 15.76691690
ECCENTRICITY   = .0006285
INCLINATION    = 51.6247
RA_OF_ASC_NODE = 326.4734
ARG_OF_PERICENTER = 205.0225
MEAN_ANOMALY   = 155.0471

EPHEMERIS_TYPE = 0
CLASSIFICATION_TYPE = U
NORAD_CAT_ID   = 66908
ELEMENT_SET_NO = 999
REV_AT_EPOCH   = 1822
BSTAR          = .14811E-2
MEAN_MOTION_DOT = .249218E-2
MEAN_MOTION_DDOT = 0

CCSDS_OMM_VERS = 2.0
CREATION_DATE  = 
ORIGINATOR     = 

OBJECT_NAME    = SILVERSAT
OBJECT_ID      = 1998-067XV
CENTER_NAME    = EARTH
REF_FRAME      = TEME
TIME_SYSTEM    = UTC
MEAN_ELEMENT_THEORY = SGP/SGP4

EPOCH          = 2026-03-29T00:57:48.042432
MEAN_MOTION    = 15.82009112
ECCENTRICITY   = .0007067
INCLINATION    = 51.6214
RA_OF_ASC_NODE = 325.0706
ARG_OF_PERICENTER = 211.1784
MEAN_ANOMALY   = 148.8799

EPHEMERIS_TYPE = 0
CLASSIFICATION_TYPE = U
NORAD_CAT_ID   = 66909
ELEMENT_SET_NO = 999
REV_AT_EPOCH   = 1824
BSTAR          = .16517E-2
MEAN_MOTION_DOT = .358553E-2
MEAN_MOTION_DDOT = 0

CCSDS_OMM_VERS = 2.0
CREATION_DATE  = 
ORIGINATOR     = 

OBJECT_NAME    = ISS OBJECT XW
OBJECT_ID      = 1998-067XW
CENTER_NAME    = EARTH
REF_FRAME      = TEME
TIME_SYSTEM    = UTC
MEAN_ELEMENT_THEORY = SGP/SGP4

EPOCH          = 2026-03-29T00:50:14.989344
MEAN_MOTION    = 15.74966999
ECCENTRICITY   = .0006342
INCLINATION    = 51.6232
RA_OF_ASC_NODE = 326.5457
ARG_OF_PERICENTER = 202.5338
MEAN_ANOMALY   = 157.5384

EPHEMERIS_TYPE = 0
CLASSIFICATION_TYPE = U
NORAD_CAT_ID   = 66910
ELEMENT_SET_NO = 999
REV_AT_EPOCH   = 1822
BSTAR          = .1371E-2
MEAN_MOTION_DOT = .212904E-2
MEAN_MOTION_DDOT = 0

CCSDS_OMM_VERS = 2.0
CREATION_DATE  = 
ORIGINATOR     = 

OBJECT_NAME    = ISS OBJECT XX
OBJECT_ID      = 1998-067XX
CENTER_NAME    = EARTH
REF_FRAME      = TEME
TIME_SYSTEM    = UTC
MEAN_ELEMENT_THEORY = SGP/SGP4

EPOCH          = 2026-03-29T01:03:10.863936
MEAN_MOTION    = 15.88734318
ECCENTRICITY   = .0008896
INCLINATION    = 51.6187
RA_OF_ASC_NODE = 323.5595
ARG_OF_PERICENTER = 215.9725
MEAN_ANOMALY   = 144.0682

EPHEMERIS_TYPE = 0
CLASSIFICATION_TYPE = U
NORAD_CAT_ID   = 66911
ELEMENT_SET_NO = 999
REV_AT_EPOCH   = 1825
BSTAR          = .1809E-2
MEAN_MOTION_DOT = .556003E-2
MEAN_MOTION_DDOT = 0

CCSDS_OMM_VERS = 2.0
CREATION_DATE  = 
ORIGINATOR     = 

OBJECT_NAME    = ISS OBJECT XY
OBJECT_ID      = 1998-067XY
CENTER_NAME    = EARTH
REF_FRAME      = TEME
TIME_SYSTEM    = UTC
MEAN_ELEMENT_THEORY = SGP/SGP4

EPOCH          = 2026-03-29T01:11:41.978688
MEAN_MOTION    = 15.67649545
ECCENTRICITY   = .000432
INCLINATION    = 51.6270
RA_OF_ASC_NODE = 328.9267
ARG_OF_PERICENTER = 201.5459
MEAN_ANOMALY   = 158.5356

EPHEMERIS_TYPE = 0
CLASSIFICATION_TYPE = U
NORAD_CAT_ID   = 66912
ELEMENT_SET_NO = 999
REV_AT_EPOCH   = 1818
BSTAR          = .10294E-2
MEAN_MOTION_DOT = .115852E-2
MEAN_MOTION_DDOT = 0

CCSDS_OMM_VERS = 2.0
CREATION_DATE  = 
ORIGINATOR     = 

OBJECT_NAME    = KNACKSAT-2
OBJECT_ID      = 1998-067XZ
CENTER_NAME    = EARTH
REF_FRAME      = TEME
TIME_SYSTEM    = UTC
MEAN_ELEMENT_THEORY = SGP/SGP4

EPOCH          = 2026-03-28T21:47:51.759744
MEAN_MOTION    = 15.53414385
ECCENTRICITY   = .0010006
INCLINATION    = 51.6324
RA_OF_ASC_NODE = 336.2444
ARG_OF_PERICENTER = 255.4599
MEAN_ANOMALY   = 104.5282

EPHEMERIS_TYPE = 0
CLASSIFICATION_TYPE = U
NORAD_CAT_ID   = 67683
ELEMENT_SET_NO = 999
REV_AT_EPOCH   = 777
BSTAR          = .71242E-3
MEAN_MOTION_DOT = .45826E-3
MEAN_MOTION_DDOT = 0

